# From MPC106342
C/1995 O1 (Hale-Bopp),e,89.0280,283.2801,130.5291,178.9147,0.0004118,0.99494829,0.0000,03/29.7421/1997,2000,g -2.0,4.0
# From NK 1615
P/1996 R2 (Lagerkvist),e,2.6003,40.0277,333.3140,3.775020,0.1343771,0.31410037,98.6737,02/15.0/2021,2000,g 11.5,4.0
# From MPC 30063
P/1997 B1 (Kobayashi),e,12.3395,328.8828,183.3514,8.570326,0.0392833,0.76014591,344.0200,02/15.0/2021,2000,g 15.0,2.0
# From MPC 75703
P/1998 VS24 (LINEAR),e,5.0256,159.0324,244.6537,4.529083,0.1022559,0.24208390,114.9339,02/15.0/2021,2000,g 13.0,2.0
# From NK 731
P/1999 RO28 (LONEOS),e,7.5670,137.8844,231.2662,3.426739,0.1553755,0.67212046,93.2017,02/15.0/2021,2000,g 20.0,2.0
# From MPC 75704
P/1999 XN120 (Catalina),e,5.0296,285.2963,161.8753,4.179035,0.1153693,0.21027912,155.2511,02/15.0/2021,2000,g 13.5,2.0
# From NK 744
P/2000 R2 (LINEAR),e,11.6851,160.2914,176.5246,3.466302,0.1527230,0.53158894,92.9396,02/15.0/2021,2000,g 18.0,4.0
# From MPC 43019
P/2001 H5 (NEAT),e,8.3670,328.6837,224.8634,6.098047,0.0654512,0.59857065,127.3695,02/15.0/2021,2000,g 12.0,4.0
# From MPC 75704
P/2001 Q6 (NEAT),e,56.9050,22.1403,42.9384,7.951848,0.0439544,0.82286749,311.2556,02/15.0/2021,2000,g 13.5,4.0
# From MPC 47727
P/2002 EJ57 (LINEAR),e,4.9761,330.3271,167.3669,6.472325,0.0598568,0.59262577,58.2226,02/15.0/2021,2000,g 12.5,4.0
# From MPC109588
P/2002 T6 (NEAT-LINEAR),e,10.8342,206.3795,219.6296,7.675179,0.0463523,0.56028392,301.8690,02/15.0/2021,2000,g 10.5,4.0
# From MPC 75007
C/2002 VQ94 (LINEAR),e,70.5823,35.0278,100.1526,185.5863,0.0003898,0.96318135,2.1432,02/15.0/2021,2000,g  9.5,2.0
# From MPC 50354
P/2003 F2 (NEAT),e,11.6047,359.0592,191.9823,6.493768,0.0595606,0.54230868,27.4303,02/15.0/2021,2000,g 16.5,2.0
# From MPC 50139
P/2003 QX29 (NEAT),e,11.3898,264.5818,37.4367,8.030715,0.0433085,0.47299927,289.3180,02/15.0/2021,2000,g  8.5,4.0
# From MPC105235
P/2003 T12 (SOHO),e,11.0177,174.5740,219.7646,2.586098,0.2369936,0.76967671,67.3371,02/15.0/2021,2000,g 17.0,4.0
# From MPC 82312
P/2004 A1 (LONEOS),e,10.5516,124.8468,21.3753,7.957728,0.0439056,0.30932731,264.8407,02/15.0/2021,2000,g  6.5,4.0
# From MPC 54558
P/2004 DO29 (Spacewatch-LINEAR),e,14.5320,147.3762,40.7062,7.283693,0.0501391,0.44124776,299.5489,02/15.0/2021,2000,g 13.5,2.0
# From MPC 54823
P/2004 FY140 (LINEAR),e,2.1348,326.7602,242.4425,4.902296,0.0908040,0.16847233,184.5729,02/15.0/2021,2000,g 12.5,2.0
# From MPC 53304
P/2004 R3 (LINEAR-NEAT),e,12.8219,305.4811,38.3518,4.797903,0.0937836,0.26117506,339.1308,02/15.0/2021,2000,g 14.5,4.0
# From MPC 55521
P/2004 V3 (Siding Spring),e,50.4363,356.1190,322.3193,7.142867,0.0516292,0.44634451,307.8538,02/15.0/2021,2000,g 11.5,4.0
# From MPC 75705
P/2004 V5 (LINEAR-Hill),e,19.3438,47.7758,87.7528,7.977350,0.0437438,0.44353785,256.0550,02/15.0/2021,2000,g  8.0,4.0
# From MPC 54164
P/2005 E1 (Tubbiolo),e,4.2637,335.5693,194.1002,7.038556,0.0527811,0.37515057,309.4966,02/15.0/2021,2000,g 10.0,4.0
# From MPC 54823
P/2005 GF8 (LONEOS),e,1.1928,314.8249,284.9528,5.851185,0.0696367,0.51786407,35.1650,02/15.0/2021,2000,g 11.5,4.0
# From MPC 79019
P/2005 J1 (McNaught),e,31.7649,268.8063,338.9607,3.570053,0.1461141,0.56978171,125.1261,02/15.0/2021,2000,g 16.5,4.0
# From MPC 74246
P/2005 L1 (McNaught),e,7.7385,138.2480,149.7110,3.975289,0.1243515,0.20941574,327.5847,02/15.0/2021,2000,g  9.5,4.0
# From MPC 75706
P/2005 S2 (Skiff),e,3.1357,161.2013,229.1515,8.016474,0.0434239,0.19709600,234.3662,02/15.0/2021,2000,g  7.5,4.0
# From MPC 75706
P/2005 SB216 (LONEOS),e,24.0775,1.2188,83.3806,7.128909,0.0517809,0.46346704,266.8263,02/15.0/2021,2000,g 12.0,2.0
# From MPC 55717
P/2005 T2 (Christensen),e,8.2926,260.1580,58.8184,3.846100,0.1306692,0.41639329,40.8496,02/15.0/2021,2000,g 14.5,4.0
# From MPC 73461
P/2005 T3 (Read),e,6.2242,27.7306,6.9293,7.579705,0.0472308,0.17413311,264.9068,02/15.0/2021,2000,g  9.0,4.0
# From MPC 73461
P/2005 T4 (SWAN),e,160.1938,25.7042,41.6083,9.361136,0.0344121,0.92984903,193.3260,02/15.0/2021,2000,g 15.0,4.0
# From MPC 75706
P/2005 T5 (Broughton),e,21.3558,57.0050,304.5397,7.290848,0.0500653,0.55213108,280.8720,02/15.0/2021,2000,g 11.0,4.0
# From MPC 56954
P/2005 W3 (Kowalski),e,16.4192,210.0866,200.7062,6.330152,0.0618846,0.54342014,346.5207,02/15.0/2021,2000,g 12.0,4.0
# From MPC 75706
P/2005 Y2 (McNaught),e,19.0804,94.4870,193.9827,6.387908,0.0610473,0.47080449,7.1798,02/15.0/2021,2000,g  9.0,4.0
# From MPC 56954
P/2006 F4 (Spacewatch),e,12.4104,183.8528,31.0912,3.525066,0.1489201,0.33962160,83.7604,02/15.0/2021,2000,g 15.0,4.0
# From MPC 75707
P/2006 HR30 (Siding Spring),e,31.8294,309.9038,117.2881,7.811288,0.0451461,0.84212460,233.7527,02/15.0/2021,2000,g 11.0,4.0
# From MPC 75707
P/2006 S4 (Christensen),e,39.5335,36.0898,305.1460,6.313263,0.0621331,0.50814405,339.2694,02/15.0/2021,2000,g 11.0,4.0
# From MPC 75707
P/2007 A2 (Christensen),e,26.4877,300.9066,186.7479,6.326036,0.0619450,0.55763437,319.5911,02/15.0/2021,2000,g 13.5,4.0
# From MPC 75707
P/2007 C2 (Catalina),e,8.6493,275.5833,179.9566,6.993002,0.0532977,0.47038494,260.5327,02/15.0/2021,2000,g 10.0,4.0
# From MPC 84315
C/2007 D1 (LINEAR),e,41.5016,171.1909,340.0704,1491,0.0000171,0.99407860,0.0000,06/09.1801/2007,2000,g  3.5,4.0
# From MPC 82314
P/2007 K2 (Gibbs),e,7.6347,188.6452,347.4579,7.263788,0.0503453,0.68323692,251.9843,02/15.0/2021,2000,g 14.0,4.0
# From MPC 60925
P/2007 Q2 (Gilmore),e,10.2027,172.1600,162.7748,5.653336,0.0733241,0.67016701,5.8682,02/15.0/2021,2000,g 16.0,4.0
# From MPC 75708
P/2007 R4 (Garradd),e,20.2210,87.2211,282.6267,5.930729,0.0682405,0.67009930,339.7461,02/15.0/2021,2000,g 14.5,4.0
# From MPC 73462
P/2007 S1 (Zhao),e,5.9635,141.3756,245.6931,3.814028,0.1323209,0.33958894,280.5484,02/15.0/2021,2000,g 13.0,4.0
# From MPC 61994
P/2007 T2 (Kowalski),e,9.7465,3.3746,359.6365,3.047080,0.1853013,0.78530128,173.6640,02/15.0/2021,2000,g 18.5,4.0
# From MPC 75708
P/2008 CL94 (Lemmon),e,8.3469,33.3273,80.4834,6.161544,0.0644421,0.12033519,345.9315,02/15.0/2021,2000,g  8.0,4.0
# From MPC 75709
P/2008 L2 (Hill),e,25.8588,218.0064,141.2155,6.028640,0.0665848,0.61310068,305.7212,02/15.0/2021,2000,g 12.5,4.0
# From MPC 64114
P/2008 O3 (Boattini),e,32.2582,47.5935,341.0913,8.222429,0.0418027,0.69522790,194.4134,02/15.0/2021,2000,g 13.0,4.0
# From MPC 75709
P/2008 QP20 (LINEAR-Hill),e,7.5224,322.0735,75.5788,3.553544,0.1471335,0.49208064,312.7512,02/15.0/2021,2000,g 15.5,4.0
# From MPC 66204
P/2008 WZ96 (LINEAR),e,7.1113,56.4615,341.8952,3.489226,0.1512204,0.47014292,330.8564,02/15.0/2021,2000,g 13.5,4.0
# From MPC 75710
P/2008 Y3 (McNaught),e,38.7642,262.7946,238.2446,8.046345,0.0431823,0.44548648,191.5350,02/15.0/2021,2000,g  8.5,4.0
# From MPC 75710
P/2009 B1 (Boattini),e,22.2193,297.0913,128.8866,6.736374,0.0563722,0.63471859,249.2849,02/15.0/2021,2000,g 13.0,4.0
# From MPC 66466
C/2009 G1 (STEREO),e,108.7455,120.4338,175.4022,430.8722,0.0001102,0.99736441,0.0000,04/15.4525/2009,2000,g  9.0,4.0
# From MPC 75710
P/2009 O3 (Hill),e,16.2683,183.7102,154.4007,7.770027,0.0455062,0.68764123,195.1230,02/15.0/2021,2000,g 12.5,4.0
# From MPC 98557
P/2009 Q1 (Hill),e,14.5055,173.9597,157.1264,5.520513,0.0759862,0.49484226,324.8079,02/15.0/2021,2000,g 11.5,4.0
# From MPC 68902
P/2009 Q5 (McNaught),e,40.9786,160.2681,209.0215,7.437251,0.0485943,0.60883199,203.2473,02/15.0/2021,2000,g 10.0,4.0
# From MPC112389
P/2009 T2 (La Sagra),e,27.5531,215.8025,216.4061,7.723942,0.0459140,0.76518608,186.7685,02/15.0/2021,2000,g 14.0,4.0
# From MPC 75711
P/2009 U4 (McNaught),e,10.0805,55.3530,259.8379,5.083800,0.0859847,0.67611554,1.1955,02/15.0/2021,2000,g 14.0,4.0
# From MPC105235
P/2009 WX51 (Catalina),e,9.5954,31.6828,118.0746,3.080537,0.1822907,0.74029557,16.5223,02/15.0/2021,2000,g 19.0,2.0
# From MPC 74247
P/2009 Y2 (Kowalski),e,29.9305,262.0244,172.1599,6.549472,0.0588023,0.63592204,235.4049,02/15.0/2021,2000,g 13.0,4.0
# From MPC 75711
P/2010 A3 (Hill),e,14.8531,64.0008,42.0138,6.076482,0.0658000,0.73336298,262.1321,02/15.0/2021,2000,g 14.0,4.0
# From MPC 75008
P/2010 C1 (Scotti),e,9.1281,141.8860,3.7375,7.103175,0.0520625,0.25866556,213.9902,02/15.0/2021,2000,g  9.5,4.0
# From MPC 75008
P/2010 D2 (WISE),e,57.0847,319.8919,120.0723,6.716183,0.0566266,0.45090459,227.5223,02/15.0/2021,2000,g 16.0,4.0
# From MPC 75009
P/2010 E2 (Jarnac),e,15.4016,177.8244,8.3677,8.638462,0.0388195,0.72009177,154.1665,02/15.0/2021,2000,g 14.0,4.0
# From MPC 72851
P/2010 H2 (Vales),e,14.2734,64.2026,128.1638,3.834061,0.1312851,0.19573842,164.7721,02/15.0/2021,2000,g  6.0,4.0
# From MPC 70361
P/2010 H3 (SOHO),e,23.0875,77.1009,26.1389,3.038441,0.1860920,0.98538724,0.0000,02/07.9651/2021,2000,g 20.0,2.0
# From MPC 73463
P/2010 H4 (Scotti),e,2.3187,44.7442,179.5530,6.590515,0.0582539,0.26738571,226.8107,02/15.0/2021,2000,g 10.5,4.0
# From MPC 74637
P/2010 H5 (Scotti),e,14.0654,24.8075,175.2481,7.160072,0.0514432,0.15346952,204.0270,02/15.0/2021,2000,g 13.0,2.0
# From MPC 98558
P/2010 J3 (McMillan),e,13.2882,106.4123,157.5913,8.971310,0.0366792,0.72711821,140.1894,02/15.0/2021,2000,g 11.0,4.0
# From MPC 84315
P/2010 JC81 (WISE),e,38.7322,30.8449,12.4369,8.110493,0.0426710,0.77682524,153.1713,02/15.0/2021,2000,g  9.0,4.0
# From MPC 74248
P/2010 T2 (PANSTARRS),e,7.9067,58.9759,353.5565,5.520465,0.0759872,0.32148183,273.8645,02/15.0/2021,2000,g 11.5,4.0
# From MPC 98558
P/2010 TO20 (LINEAR-Grauer),e,2.4791,43.2961,266.7598,5.829832,0.0700197,0.05476108,315.0196,02/15.0/2021,2000,g  9.0,4.0
# From MPC 82316
P/2010 U1 (Boattini),e,8.2145,280.7137,85.9216,6.511067,0.0593234,0.24818331,239.6881,02/15.0/2021,2000,g  9.5,4.0
# From MPC119994
C/2010 U3 (Boattini),e,55.5238,43.0284,88.0677,2342,0.0000087,0.99639361,0.0000,02/25.7769/2019,2000,g  1.0,4.0
# From MPC 79021
P/2010 UH55 (Spacewatch),e,8.0438,232.9706,225.1825,6.651732,0.0574516,0.56342553,206.6134,02/15.0/2021,2000,g 11.0,4.0
# From MPC 75009
P/2010 WK (LINEAR),e,11.4007,11.3185,40.9807,5.760750,0.0712829,0.68984340,270.6604,02/15.0/2021,2000,g 14.5,2.0
# From MPC 82317
